[{"OBJECT_NAME":"STARLINK-4366","OBJECT_ID":"2022-084AQ","EPOCH":"2026-03-09T17:57:39.476448","MEAN_MOTION":15.05648965,"ECCENTRICITY":0.00013136,"INCLINATION":97.6028,"RA_OF_ASC_NODE":131.2499,"ARG_OF_PERICENTER":87.4887,"MEAN_ANOMALY":272.649,"EPHEMERIS_TYPE":0,"CLASSIFICATION_TYPE":"U","NORAD_CAT_ID":53227,"ELEMENT_SET_NO":999,"REV_AT_EPOCH":19939,"BSTAR":-9.8133538e-5,"MEAN_MOTION_DOT":-1.476e-5,"MEAN_MOTION_DDOT":0},{"OBJECT_NAME":"FENGYUN 1C DEB","OBJECT_ID":"1999-025FK","EPOCH":"2026-03-09T17:46:38.104320","MEAN_MOTION":14.84141288,"ECCENTRICITY":0.01116123,"INCLINATION":98.9208,"RA_OF_ASC_NODE":354.5977,"ARG_OF_PERICENTER":225.7574,"MEAN_ANOMALY":200.963,"EPHEMERIS_TYPE":0,"CLASSIFICATION_TYPE":"U","NORAD_CAT_ID":29865,"ELEMENT_SET_NO":999,"REV_AT_EPOCH":2048,"BSTAR":0.00075888297,"MEAN_MOTION_DOT":7.012e-5,"MEAN_MOTION_DDOT":0}]
